{
  "type": "FeatureCollection",
  "features": [
    {
      "type": "Feature",
      "properties": {
        "norad_id": 31236,
        "name": "FENGYUN 1C DEB",
        "group": "fengyun-1c-debris",
        "lat": -65.86424931788898,
        "lon": -37.47394650599954,
        "alt_km": 1027.1982570969594,
        "timestamp": "2025-12-13T18:50:04.712278+00:00",
        "meta_object_name": "FENGYUN 1C DEB",
        "meta_object_id": "1999-025BLS",
        "meta_epoch": "2025-12-13T03:33:37.234368",
        "meta_mean_motion": 13.85845598,
        "meta_eccentricity": 0.0314629,
        "meta_inclination": 98.5457,
        "meta_ra_of_asc_node": 302.337,
        "meta_arg_of_pericenter": 45.618,
        "meta_mean_anomaly": 317.0289,
        "meta_ephemeris_type": 0,
        "meta_classification_type": "U",
        "meta_norad_cat_id": 31236,
        "meta_element_set_no": 999,
        "meta_rev_at_epoch": 61030,
        "meta_bstar": 0.0073482315,
        "meta_mean_motion_dot": 0.00012409,
        "meta_mean_motion_ddot": 0,
        "tle_line1": "1 31236U 99025BLS 25347.14834762  .00012409  00000+0  73482-2 0  9997",
        "tle_line2": "2 31236  98.5457 302.3370 0314629  45.6180 317.0289 13.85845598610308"
      },
      "geometry": {
        "type": "Point",
        "coordinates": [
          -37.47394650599954,
          -65.86424931788898
        ]
      }
    },
    {
      "type": "Feature",
      "properties": {
        "norad_id": 31237,
        "name": "FENGYUN 1C DEB",
        "group": "fengyun-1c-debris",
        "lat": 36.00147987086506,
        "lon": -19.583772360815797,
        "alt_km": 743.7824089593123,
        "timestamp": "2025-12-13T18:50:04.712289+00:00",
        "meta_object_name": "FENGYUN 1C DEB",
        "meta_object_id": "1999-025BLT",
        "meta_epoch": "2025-12-12T22:32:08.691936",
        "meta_mean_motion": 14.31390339,
        "meta_eccentricity": 0.00889905,
        "meta_inclination": 98.4542,
        "meta_ra_of_asc_node": 345.7966,
        "meta_arg_of_pericenter": 348.3974,
        "meta_mean_anomaly": 11.5158,
        "meta_ephemeris_type": 0,
        "meta_classification_type": "U",
        "meta_norad_cat_id": 31237,
        "meta_element_set_no": 999,
        "meta_rev_at_epoch": 97269,
        "meta_bstar": 0.00094147924,
        "meta_mean_motion_dot": 2.564e-05,
        "meta_mean_motion_ddot": 0,
        "tle_line1": "1 31237U 99025BLT 25346.93898949  .00002564  00000+0  94148-3 0  9995",
        "tle_line2": "2 31237  98.4542 345.7966 0088990 348.3974  11.5158 14.31390339972692"
      },
      "geometry": {
        "type": "Point",
        "coordinates": [
          -19.583772360815797,
          36.00147987086506
        ]
      }
    },
    {
      "type": "Feature",
      "properties": {
        "norad_id": 31239,
        "name": "FENGYUN 1C DEB",
        "group": "fengyun-1c-debris",
        "lat": 31.6687782544902,
        "lon": 168.15484874152645,
        "alt_km": 833.6888134773799,
        "timestamp": "2025-12-13T18:50:04.712300+00:00",
        "meta_object_name": "FENGYUN 1C DEB",
        "meta_object_id": "1999-025BLV",
        "meta_epoch": "2025-12-11T23:51:24.109056",
        "meta_mean_motion": 14.09860145,
        "meta_eccentricity": 0.0049253,
        "meta_inclination": 98.7583,
        "meta_ra_of_asc_node": 340.9554,
        "meta_arg_of_pericenter": 200.1613,
        "meta_mean_anomaly": 224.191,
        "meta_ephemeris_type": 0,
        "meta_classification_type": "U",
        "meta_norad_cat_id": 31239,
        "meta_element_set_no": 999,
        "meta_rev_at_epoch": 96001,
        "meta_bstar": 0.00057285,
        "meta_mean_motion_dot": 9.76e-06,
        "meta_mean_motion_ddot": 0,
        "tle_line1": "1 31239U 99025BLV 25345.99402904  .00000976  00000+0  57285-3 0  9990",
        "tle_line2": "2 31239  98.7583 340.9554 0049253 200.1613 224.1910 14.09860145960019"
      },
      "geometry": {
        "type": "Point",
        "coordinates": [
          168.15484874152645,
          31.6687782544902
        ]
      }
    },
    {
      "type": "Feature",
      "properties": {
        "norad_id": 31241,
        "name": "FENGYUN 1C DEB",
        "group": "fengyun-1c-debris",
        "lat": -80.75894980221358,
        "lon": -136.31169459593823,
        "alt_km": 771.5887736053483,
        "timestamp": "2025-12-13T18:50:04.712310+00:00",
        "meta_object_name": "FENGYUN 1C DEB",
        "meta_object_id": "1999-025BLX",
        "meta_epoch": "2025-12-11T08:50:09.305664",
        "meta_mean_motion": 14.38689727,
        "meta_eccentricity": 0.00667838,
        "meta_inclination": 99.2338,
        "meta_ra_of_asc_node": 132.0841,
        "meta_arg_of_pericenter": 185.0225,
        "meta_mean_anomaly": 175.0298,
        "meta_ephemeris_type": 0,
        "meta_classification_type": "U",
        "meta_norad_cat_id": 31241,
        "meta_element_set_no": 999,
        "meta_rev_at_epoch": 97671,
        "meta_bstar": 0.0012232111,
        "meta_mean_motion_dot": 3.801e-05,
        "meta_mean_motion_ddot": 0,
        "tle_line1": "1 31241U 99025BLX 25345.36816326  .00003801  00000+0  12232-2 0  9993",
        "tle_line2": "2 31241  99.2338 132.0841 0066783 185.0225 175.0298 14.38689727976716"
      },
      "geometry": {
        "type": "Point",
        "coordinates": [
          -136.31169459593823,
          -80.75894980221358
        ]
      }
    },
    {
      "type": "Feature",
      "properties": {
        "norad_id": 31243,
        "name": "FENGYUN 1C DEB",
        "group": "fengyun-1c-debris",
        "lat": 71.840910410239,
        "lon": 0.00757549953217406,
        "alt_km": 862.8957047798776,
        "timestamp": "2025-12-13T18:50:04.712321+00:00",
        "meta_object_name": "FENGYUN 1C DEB",
        "meta_object_id": "1999-025BLZ",
        "meta_epoch": "2025-12-12T13:28:14.713824",
        "meta_mean_motion": 14.07167351,
        "meta_eccentricity": 0.0066177,
        "meta_inclination": 98.7501,
        "meta_ra_of_asc_node": 26.8293,
        "meta_arg_of_pericenter": 168.8159,
        "meta_mean_anomaly": 191.4499,
        "meta_ephemeris_type": 0,
        "meta_classification_type": "U",
        "meta_norad_cat_id": 31243,
        "meta_element_set_no": 999,
        "meta_rev_at_epoch": 69305,
        "meta_bstar": 0.0011442376,
        "meta_mean_motion_dot": 1.913e-05,
        "meta_mean_motion_ddot": 0,
        "tle_line1": "1 31243U 99025BLZ 25346.56128141  .00001913  00000+0  11442-2 0  9993",
        "tle_line2": "2 31243  98.7501  26.8293 0066177 168.8159 191.4499 14.07167351693055"
      },
      "geometry": {
        "type": "Point",
        "coordinates": [
          0.00757549953217406,
          71.840910410239
        ]
      }
    },
    {
      "type": "Feature",
      "properties": {
        "norad_id": 31244,
        "name": "FENGYUN 1C DEB",
        "group": "fengyun-1c-debris",
        "lat": 80.25071151115239,
        "lon": -60.740219018355376,
        "alt_km": 849.1250557686335,
        "timestamp": "2025-12-13T18:50:04.712331+00:00",
        "meta_object_name": "FENGYUN 1C DEB",
        "meta_object_id": "1999-025BMA",
        "meta_epoch": "2025-12-07T22:21:36.542016",
        "meta_mean_motion": 14.06237413,
        "meta_eccentricity": 0.01023168,
        "meta_inclination": 99.037,
        "meta_ra_of_asc_node": 45.5611,
        "meta_arg_of_pericenter": 188.335,
        "meta_mean_anomaly": 171.6122,
        "meta_ephemeris_type": 0,
        "meta_classification_type": "U",
        "meta_norad_cat_id": 31244,
        "meta_element_set_no": 999,
        "meta_rev_at_epoch": 57572,
        "meta_bstar": 0.00047777338,
        "meta_mean_motion_dot": 7.8e-06,
        "meta_mean_motion_ddot": 0,
        "tle_line1": "1 31244U 99025BMA 25341.93167294  .00000780  00000+0  47777-3 0  9994",
        "tle_line2": "2 31244  99.0370  45.5611 0102316 188.3350 171.6122 14.06237413575724"
      },
      "geometry": {
        "type": "Point",
        "coordinates": [
          -60.740219018355376,
          80.25071151115239
        ]
      }
    },
    {
      "type": "Feature",
      "properties": {
        "norad_id": 31246,
        "name": "FENGYUN 1C DEB",
        "group": "fengyun-1c-debris",
        "lat": 8.026350576318627,
        "lon": -166.50627654025638,
        "alt_km": 774.6957733421605,
        "timestamp": "2025-12-13T18:50:04.712341+00:00",
        "meta_object_name": "FENGYUN 1C DEB",
        "meta_object_id": "1999-025BMC",
        "meta_epoch": "2025-12-12T08:40:07.558176",
        "meta_mean_motion": 14.07203108,
        "meta_eccentricity": 0.01486979,
        "meta_inclination": 98.8179,
        "meta_ra_of_asc_node": 193.3588,
        "meta_arg_of_pericenter": 344.8205,
        "meta_mean_anomaly": 14.8526,
        "meta_ephemeris_type": 0,
        "meta_classification_type": "U",
        "meta_norad_cat_id": 31246,
        "meta_element_set_no": 999,
        "meta_rev_at_epoch": 61747,
        "meta_bstar": 0.003171684,
        "meta_mean_motion_dot": 5.838e-05,
        "meta_mean_motion_ddot": 0,
        "tle_line1": "1 31246U 99025BMC 25346.36119859  .00005838  00000+0  31717-2 0  9997",
        "tle_line2": "2 31246  98.8179 193.3588 0148697 344.8205  14.8526 14.07203108617475"
      },
      "geometry": {
        "type": "Point",
        "coordinates": [
          -166.50627654025638,
          8.026350576318627
        ]
      }
    }
  ]
}